<?xml version="1.0" encoding="UTF-8"?>
<kml xmlns="http://www.opengis.net/kml/2.2"><Document><name>Capacuan mining blocks (PRS92, shown in WGS84)</name><Style id="mb"><LineStyle><color>ffff00ff</color><width>3</width></LineStyle><PolyStyle><color>22ff00ff</color></PolyStyle></Style>
<Style id="plant"><LineStyle><color>ff0000ff</color><width>3</width></LineStyle><PolyStyle><color>550000ff</color></PolyStyle></Style>
<Placemark><name>Minahang Bayan 82.9053 ha (filed 2017)</name><styleUrl>#mb</styleUrl><description>CSSMA MB application, Amended Sketch Plan, GE Jose T. Abareta, received MGB-V 11 Oct 2017. Corners as filed (PRS92): 14 15 00.00 N to 14 15 30.00 N, 122 42 30.00 E to 122 43 00.00 E.</description><Polygon><outerBoundaryIs><LinearRing><coordinates>122.709698,14.248556,0 122.709698,14.256889,0 122.718031,14.256889,0 122.718031,14.248557,0 122.709698,14.248556,0</coordinates></LinearRing></outerBoundaryIs></Polygon></Placemark><Placemark><name>Processing plant 5.1816 ha</name><styleUrl>#plant</styleUrl><description>Kapasyahan 18 s-2021 / 64 s-2024; PMRB filing 10 May 2021; MB refiling 9 Jun 2026. Corners as filed (PRS92): 14 15 07.50 N to 14 15 15.00 N, 122 42 30.00 E to 122 42 37.50 E.</description><Polygon><outerBoundaryIs><LinearRing><coordinates>122.709698,14.250640,0 122.709698,14.252723,0 122.711781,14.252723,0 122.711781,14.250640,0 122.709698,14.250640,0</coordinates></LinearRing></outerBoundaryIs></Polygon></Placemark></Document></kml>
