{"type": "FeatureCollection", "features": [{"type": "Feature", "properties": {"name": "Lot 4 Psu-143364 / OCT P-1616", "version": "v6", "corner1": [14.24897, 122.711783], "provenance": "verified tie point (DENR CN tie-point table id 52589, BLBM No.1 Bo. Batobalane, Luzon datum proven by 0.00m PTM round-trip, PRS92->WGS84) + title tie line N.60-31'W 3508.83m (minutes digit inferred_strong, candidates 01/31/51, spread +/-25m)", "accuracy_m": "30-60", "supersedes": "v5 drag-fit 590 m NE", "area_sqm_titled": 152069, "area_sqm_computed": 152068.9, "closure_m": 0.07}, "geometry": {"type": "Polygon", "coordinates": [[[122.711783, 14.24897], [122.711877, 14.250352], [122.712436, 14.248236], [122.714362, 14.247487], [122.712308, 14.245672], [122.710827, 14.245959], [122.709412, 14.245199], [122.709192, 14.246946], [122.708821, 14.247654], [122.708458, 14.247735], [122.707952, 14.247575], [122.707887, 14.248255], [122.70979, 14.24825], [122.710599, 14.24877], [122.711789, 14.248335], [122.711783, 14.24897]]]}}, {"type": "Feature", "properties": {"name": "BLBM No. 1 Bo. Batobalani (official)", "id_tiepoint": 52589, "ptm4": [471803.2707, 1574167.757], "provenance": "verified"}, "geometry": {"type": "Point", "coordinates": [122.74009, 14.233391]}}, {"type": "Feature", "properties": {"name": "BLBM No. 2 Bo. Batobalani (official)", "id_tiepoint": 52592, "ptm4": [471875.8787, 1574222.684], "provenance": "verified"}, "geometry": {"type": "Point", "coordinates": [122.740762, 14.233889]}}]}